GLOBALSTAR M063         
1 26081U 00008A   24143.91879347 -.00000013  00000+0  10156-2 0  9996
2 26081  51.9972  59.3830 0004354 292.6255 144.9412 11.86156498111262
GLOBALSTAR M062         
1 26082U 00008B   24144.01456067 -.00000029  00000+0  49847-3 0  9996
2 26082  51.9819 163.1348 0006981 358.9826  17.6920 12.43436546110582
GLOBALSTAR M060         
1 26083U 00008C   24143.99926088 -.00000166  00000+0 -74335-3 0  9991
2 26083  52.0031  67.9841 0003797  49.5274  80.1066 12.17633526105007
GLOBALSTAR M064         
1 26084U 00008D   24144.08748833 -.00000049  00000+0  48684-3 0  9990
2 26084  52.0000 162.3688 0001306  20.0734 340.0150 11.88519489120829
GLOBALSTAR M065         
1 31571U 07020A   24143.85056146 -.00000053  00000+0  28439-3 0  9992
2 31571  51.9909 334.2889 0010426 160.0272 304.2898 12.61971233784121
GLOBALSTAR M069         
1 31573U 07020C   24143.43599782 -.00000068  00000+0  19886-3 0  9998
2 31573  51.9954 291.4102 0000974 123.8509 253.9801 12.62273546785209
GLOBALSTAR M072         
1 31574U 07020D   24144.09357062 -.00000067  00000+0  20258-3 0  9999
2 31574  52.0107  25.3211 0000934  70.2178  77.2363 12.62263453783710
GLOBALSTAR M071         
1 31576U 07020F   24143.80759785 -.00000077  00000+0  15061-3 0  9994
2 31576  52.0075 295.4247 0000766  87.8447  59.0822 12.62266441446434
